{
  "type": "FeatureCollection",
  "features": [
    {
      "type": "Feature",
      "properties": {
        "norad_id": 55973,
        "name": "TIANMU-1 03",
        "group": "weather",
        "lat": -34.54136062233923,
        "lon": 157.81609683774323,
        "alt_km": 449.21068020622624,
        "timestamp": "2025-12-15T20:48:53.528264+00:00",
        "meta_object_name": "TIANMU-1 03",
        "meta_object_id": "2023-039A",
        "meta_epoch": "2025-12-14T21:35:21.912288",
        "meta_mean_motion": 15.40996089,
        "meta_eccentricity": 0.00043253,
        "meta_inclination": 97.5104,
        "meta_ra_of_asc_node": 151.6111,
        "meta_arg_of_pericenter": 54.7926,
        "meta_mean_anomaly": 305.3725,
        "meta_ephemeris_type": 0,
        "meta_classification_type": "U",
        "meta_norad_cat_id": 55973,
        "meta_element_set_no": 999,
        "meta_rev_at_epoch": 15239,
        "meta_bstar": 0.00032130694,
        "meta_mean_motion_dot": 0.0001317,
        "meta_mean_motion_ddot": 0,
        "tle_line1": "1 55973U 23039A   25348.89955917  .00013170  00000+0  32131-3 0  9995",
        "tle_line2": "2 55973  97.5104 151.6111 0004325  54.7926 305.3725 15.40996089152396"
      },
      "geometry": {
        "type": "Point",
        "coordinates": [
          157.81609683774323,
          -34.54136062233923
        ]
      }
    },
    {
      "type": "Feature",
      "properties": {
        "norad_id": 55974,
        "name": "TIANMU-1 04",
        "group": "weather",
        "lat": 79.77956388371052,
        "lon": 104.81986154252613,
        "alt_km": 432.0148935237048,
        "timestamp": "2025-12-15T20:48:53.528314+00:00",
        "meta_object_name": "TIANMU-1 04",
        "meta_object_id": "2023-039B",
        "meta_epoch": "2025-12-14T22:38:34.590624",
        "meta_mean_motion": 15.41333569,
        "meta_eccentricity": 0.00049878,
        "meta_inclination": 97.5035,
        "meta_ra_of_asc_node": 150.8464,
        "meta_arg_of_pericenter": 49.599,
        "meta_mean_anomaly": 310.5691,
        "meta_ephemeris_type": 0,
        "meta_classification_type": "U",
        "meta_norad_cat_id": 55974,
        "meta_element_set_no": 999,
        "meta_rev_at_epoch": 15240,
        "meta_bstar": 0.00027948992,
        "meta_mean_motion_dot": 0.00011572,
        "meta_mean_motion_ddot": 0,
        "tle_line1": "1 55974U 23039B   25348.94345591  .00011572  00000+0  27949-3 0  9998",
        "tle_line2": "2 55974  97.5035 150.8464 0004987  49.5990 310.5691 15.41333569152400"
      },
      "geometry": {
        "type": "Point",
        "coordinates": [
          104.81986154252613,
          79.77956388371052
        ]
      }
    },
    {
      "type": "Feature",
      "properties": {
        "norad_id": 55975,
        "name": "TIANMU-1 05",
        "group": "weather",
        "lat": 68.01341496013764,
        "lon": -8.64563393547655,
        "alt_km": 434.45435132576586,
        "timestamp": "2025-12-15T20:48:53.528327+00:00",
        "meta_object_name": "TIANMU-1 05",
        "meta_object_id": "2023-039C",
        "meta_epoch": "2025-12-14T22:31:04.442304",
        "meta_mean_motion": 15.40953066,
        "meta_eccentricity": 0.00043046,
        "meta_inclination": 97.5082,
        "meta_ra_of_asc_node": 151.3335,
        "meta_arg_of_pericenter": 72.0154,
        "meta_mean_anomaly": 288.1561,
        "meta_ephemeris_type": 0,
        "meta_classification_type": "U",
        "meta_norad_cat_id": 55975,
        "meta_element_set_no": 999,
        "meta_rev_at_epoch": 15238,
        "meta_bstar": 0.00028678417,
        "meta_mean_motion_dot": 0.00011726,
        "meta_mean_motion_ddot": 0,
        "tle_line1": "1 55975U 23039C   25348.93824586  .00011726  00000+0  28678-3 0  9995",
        "tle_line2": "2 55975  97.5082 151.3335 0004304  72.0154 288.1561 15.40953066152384"
      },
      "geometry": {
        "type": "Point",
        "coordinates": [
          -8.64563393547655,
          68.01341496013764
        ]
      }
    },
    {
      "type": "Feature",
      "properties": {
        "norad_id": 55976,
        "name": "TIANMU-1 06",
        "group": "weather",
        "lat": 70.10688410493657,
        "lon": 131.37646991012593,
        "alt_km": 432.06480561914486,
        "timestamp": "2025-12-15T20:48:53.528337+00:00",
        "meta_object_name": "TIANMU-1 06",
        "meta_object_id": "2023-039D",
        "meta_epoch": "2025-12-14T22:41:36.090240",
        "meta_mean_motion": 15.41385734,
        "meta_eccentricity": 0.00046165,
        "meta_inclination": 97.5093,
        "meta_ra_of_asc_node": 151.8079,
        "meta_arg_of_pericenter": 66.992,
        "meta_mean_anomaly": 293.1813,
        "meta_ephemeris_type": 0,
        "meta_classification_type": "U",
        "meta_norad_cat_id": 55976,
        "meta_element_set_no": 999,
        "meta_rev_at_epoch": 15240,
        "meta_bstar": 0.00028149824,
        "meta_mean_motion_dot": 0.00011676,
        "meta_mean_motion_ddot": 0,
        "tle_line1": "1 55976U 23039D   25348.94555660  .00011676  00000+0  28150-3 0  9990",
        "tle_line2": "2 55976  97.5093 151.8079 0004616  66.9920 293.1813 15.41385734152407"
      },
      "geometry": {
        "type": "Point",
        "coordinates": [
          131.37646991012593,
          70.10688410493657
        ]
      }
    },
    {
      "type": "Feature",
      "properties": {
        "norad_id": 56232,
        "name": "FENGYUN 3G",
        "group": "weather",
        "lat": -32.959015296085774,
        "lon": 178.3152959059907,
        "alt_km": 414.75110044195844,
        "timestamp": "2025-12-15T20:48:53.528348+00:00",
        "meta_object_name": "FENGYUN 3G",
        "meta_object_id": "2023-055A",
        "meta_epoch": "2025-12-14T21:51:30.526272",
        "meta_mean_motion": 15.53795796,
        "meta_eccentricity": 0.00093249,
        "meta_inclination": 49.9933,
        "meta_ra_of_asc_node": 216.2516,
        "meta_arg_of_pericenter": 158.5389,
        "meta_mean_anomaly": 201.5971,
        "meta_ephemeris_type": 0,
        "meta_classification_type": "U",
        "meta_norad_cat_id": 56232,
        "meta_element_set_no": 999,
        "meta_rev_at_epoch": 15136,
        "meta_bstar": 0.00042540795,
        "meta_mean_motion_dot": 0.00027529,
        "meta_mean_motion_ddot": 0,
        "tle_line1": "1 56232U 23055A   25348.91076998  .00027529  00000+0  42541-3 0  9997",
        "tle_line2": "2 56232  49.9933 216.2516 0009324 158.5389 201.5971 15.53795796151365"
      },
      "geometry": {
        "type": "Point",
        "coordinates": [
          178.3152959059907,
          -32.959015296085774
        ]
      }
    },
    {
      "type": "Feature",
      "properties": {
        "norad_id": 57166,
        "name": "METEOR-M2 3",
        "group": "weather",
        "lat": 69.67604237526949,
        "lon": 19.12229820431632,
        "alt_km": 804.1311442537499,
        "timestamp": "2025-12-15T20:48:53.528359+00:00",
        "meta_object_name": "METEOR-M2 3",
        "meta_object_id": "2023-091A",
        "meta_epoch": "2025-12-14T22:33:29.695392",
        "meta_mean_motion": 14.24026286,
        "meta_eccentricity": 0.00037827,
        "meta_inclination": 98.6376,
        "meta_ra_of_asc_node": 42.4408,
        "meta_arg_of_pericenter": 2.5521,
        "meta_mean_anomaly": 357.5677,
        "meta_ephemeris_type": 0,
        "meta_classification_type": "U",
        "meta_norad_cat_id": 57166,
        "meta_element_set_no": 999,
        "meta_rev_at_epoch": 12829,
        "meta_bstar": 2.5680059e-05,
        "meta_mean_motion_dot": 1.6e-07,
        "meta_mean_motion_ddot": 0,
        "tle_line1": "1 57166U 23091A   25348.93992703  .00000016  00000+0  25680-4 0  9995",
        "tle_line2": "2 57166  98.6376  42.4408 0003782   2.5521 357.5677 14.24026286128290"
      },
      "geometry": {
        "type": "Point",
        "coordinates": [
          19.12229820431632,
          69.67604237526949
        ]
      }
    },
    {
      "type": "Feature",
      "properties": {
        "norad_id": 57399,
        "name": "TIANMU-1 07",
        "group": "weather",
        "lat": -11.773671813675987,
        "lon": 41.1769610496651,
        "alt_km": 485.57460023847216,
        "timestamp": "2025-12-15T20:48:53.528369+00:00",
        "meta_object_name": "TIANMU-1 07",
        "meta_object_id": "2023-101A",
        "meta_epoch": "2025-12-14T22:51:52.507584",
        "meta_mean_motion": 15.28107784,
        "meta_eccentricity": 0.00055246,
        "meta_inclination": 97.2881,
        "meta_ra_of_asc_node": 38.7538,
        "meta_arg_of_pericenter": 76.0659,
        "meta_mean_anomaly": 284.1195,
        "meta_ephemeris_type": 0,
        "meta_classification_type": "U",
        "meta_norad_cat_id": 57399,
        "meta_element_set_no": 999,
        "meta_rev_at_epoch": 13349,
        "meta_bstar": 0.00020976115,
        "meta_mean_motion_dot": 5.678e-05,
        "meta_mean_motion_ddot": 0,
        "tle_line1": "1 57399U 23101A   25348.95269106  .00005678  00000+0  20976-3 0  9992",
        "tle_line2": "2 57399  97.2881  38.7538 0005524  76.0659 284.1195 15.28107784133496"
      },
      "geometry": {
        "type": "Point",
        "coordinates": [
          41.1769610496651,
          -11.773671813675987
        ]
      }
    }
  ]
}